[{"OBJECT_NAME":"SKYKRAFT-1A","OBJECT_ID":"2023-001AX","EPOCH":"2026-03-09T17:03:19.828224","MEAN_MOTION":15.28083228,"ECCENTRICITY":0.00112767,"INCLINATION":97.3349,"RA_OF_ASC_NODE":127.629,"ARG_OF_PERICENTER":121.5092,"MEAN_ANOMALY":238.7251,"EPHEMERIS_TYPE":0,"CLASSIFICATION_TYPE":"U","NORAD_CAT_ID":55054,"ELEMENT_SET_NO":999,"REV_AT_EPOCH":17652,"BSTAR":0.0003006872,"MEAN_MOTION_DOT":8.177e-5,"MEAN_MOTION_DDOT":0},{"OBJECT_NAME":"STARLINK-34143","OBJECT_ID":"2025-095G","EPOCH":"2026-03-09T07:53:14.854560","MEAN_MOTION":15.27591094,"ECCENTRICITY":3.309e-5,"INCLINATION":42.9961,"RA_OF_ASC_NODE":178.1631,"ARG_OF_PERICENTER":216.7211,"MEAN_ANOMALY":143.3618,"EPHEMERIS_TYPE":0,"CLASSIFICATION_TYPE":"U","NORAD_CAT_ID":63896,"ELEMENT_SET_NO":999,"REV_AT_EPOCH":4773,"BSTAR":0.0014702704,"MEAN_MOTION_DOT":0.00040432,"MEAN_MOTION_DDOT":0}]
